[{"OBJECT_NAME":"JILIN-1 GAOFEN 03D18","OBJECT_ID":"2022-019W","EPOCH":"2026-03-09T22:03:04.622400","MEAN_MOTION":15.76695092,"ECCENTRICITY":0.00043918,"INCLINATION":97.3672,"RA_OF_ASC_NODE":161.2344,"ARG_OF_PERICENTER":144.1291,"MEAN_ANOMALY":216.027,"EPHEMERIS_TYPE":0,"CLASSIFICATION_TYPE":"U","NORAD_CAT_ID":51844,"ELEMENT_SET_NO":999,"REV_AT_EPOCH":22438,"BSTAR":0.0011951386,"MEAN_MOTION_DOT":0.00194669,"MEAN_MOTION_DDOT":0},{"OBJECT_NAME":"STARLINK-36956","OBJECT_ID":"2026-039Z","EPOCH":"2026-03-09T22:00:01.999584","MEAN_MOTION":15.85906507,"ECCENTRICITY":0.00016074,"INCLINATION":42.9974,"RA_OF_ASC_NODE":53.3161,"ARG_OF_PERICENTER":257.6036,"MEAN_ANOMALY":92.3588,"EPHEMERIS_TYPE":0,"CLASSIFICATION_TYPE":"U","NORAD_CAT_ID":68009,"ELEMENT_SET_NO":999,"REV_AT_EPOCH":291,"BSTAR":-0.0070225956,"MEAN_MOTION_DOT":-0.01565653,"MEAN_MOTION_DDOT":0}]
